[
  {
    "city":"Aržano",
    "postCode":"21246"
  },
  {
    "city":"Babina Greda",
    "postCode":"32276"
  },
  {
    "city":"Babino Polje",
    "postCode":"20225"
  },
  {
    "city":"Baderna",
    "postCode":"52445"
  },
  {
    "city":"Badljevina",
    "postCode":"34552"
  },
  {
    "city":"Bakar",
    "postCode":"51222"
  },
  {
    "city":"Bakarac",
    "postCode":"51261"
  },
  {
    "city":"Bale (Valle)",
    "postCode":"52211"
  },
  {
    "city":"Banova Jaruga",
    "postCode":"44321"
  },
  {
    "city":"Banovci",
    "postCode":"32247"
  },
  {
    "city":"Bapska",
    "postCode":"32235"
  },
  {
    "city":"Barban",
    "postCode":"52207"
  },
  {
    "city":"Barilović",
    "postCode":"47252"
  },
  {
    "city":"Baška",
    "postCode":"51523"
  },
  {
    "city":"Baška Voda",
    "postCode":"21320"
  },
  {
    "city":"Bebrina",
    "postCode":"35254"
  },
  {
    "city":"Bedekovčina",
    "postCode":"49221"
  },
  {
    "city":"Bedenica",
    "postCode":"10381"
  },
  {
    "city":"Bednja",
    "postCode":"42253"
  },
  {
    "city":"Bektež",
    "postCode":"34343"
  },
  {
    "city":"Belec",
    "postCode":"49254"
  },
  {
    "city":"Belej",
    "postCode":"51555"
  },
  {
    "city":"Beli",
    "postCode":"51559"
  },
  {
    "city":"Belica",
    "postCode":"40319"
  },
  {
    "city":"Belišće",
    "postCode":"31551"
  },
  {
    "city":"Belovar",
    "postCode":"10363"
  },
  {
    "city":"Benkovac",
    "postCode":"23420"
  },
  {
    "city":"Berek",
    "postCode":"43232"
  },
  {
    "city":"Beretinec",
    "postCode":"42201"
  },
  {
    "city":"Bestovje",
    "postCode":"10437"
  },
  {
    "city":"Betina",
    "postCode":"22244"
  },
  {
    "city":"Bibinje",
    "postCode":"23205"
  },
  {
    "city":"Bilje",
    "postCode":"31327"
  },
  {
    "city":"Biograd na moru",
    "postCode":"23210"
  },
  {
    "city":"Bjelovar",
    "postCode":"43000"
  },
  {
    "city":"Blace",
    "postCode":"20357"
  },
  {
    "city":"Blato",
    "postCode":"20271"
  },
  {
    "city":"Blato na Cetini",
    "postCode":"21254"
  },
  {
    "city":"Blinjski Kut",
    "postCode":"44211"
  },
  {
    "city":"Blizna Donja",
    "postCode":"21228"
  },
  {
    "city":"Bobota",
    "postCode":"32225"
  },
  {
    "city":"Bol",
    "postCode":"21420"
  },
  {
    "city":"Boljun",
    "postCode":"52434"
  },
  {
    "city":"Boraja",
    "postCode":"22206"
  },
  {
    "city":"Borovo",
    "postCode":"32227"
  },
  {
    "city":"Bosiljevo",
    "postCode":"47251"
  },
  {
    "city":"Bošnjaci",
    "postCode":"32275"
  },
  {
    "city":"Božava",
    "postCode":"23286"
  },
  {
    "city":"Bračevci",
    "postCode":"31423"
  },
  {
    "city":"Brbinj",
    "postCode":"23285"
  },
  {
    "city":"Bregana",
    "postCode":"10432"
  },
  {
    "city":"Brela",
    "postCode":"21322"
  },
  {
    "city":"Brestovac",
    "postCode":"34322"
  },
  {
    "city":"Brestovec Orehovički",
    "postCode":"49228"
  },
  {
    "city":"Breznički Hum",
    "postCode":"42225"
  },
  {
    "city":"Brezovica",
    "postCode":"10257"
  },
  {
    "city":"Bribir",
    "postCode":"51253"
  },
  {
    "city":"Brinje",
    "postCode":"53260"
  },
  {
    "city":"Brod Moravice",
    "postCode":"51312"
  },
  {
    "city":"Brod na Kupi",
    "postCode":"51301"
  },
  {
    "city":"Brseč",
    "postCode":"51418"
  },
  {
    "city":"Bršadin",
    "postCode":"32222"
  },
  {
    "city":"Brtonigla (Verteneglio)",
    "postCode":"52474"
  },
  {
    "city":"Brusje",
    "postCode":"21454"
  },
  {
    "city":"Brušane",
    "postCode":"53206"
  },
  {
    "city":"Bučje",
    "postCode":"34553"
  },
  {
    "city":"Budimci",
    "postCode":"31432"
  },
  {
    "city":"Budinšćina",
    "postCode":"49284"
  },
  {
    "city":"Buje (Buie)",
    "postCode":"52460"
  },
  {
    "city":"Bukovlje",
    "postCode":"35209"
  },
  {
    "city":"",
    "postCode":"Bulinac43273"
  },
  {
    "city":"Buševec",
    "postCode":"10417"
  },
  {
    "city":"Buzet",
    "postCode":"52420"
  },
  {
    "city":"Cabuna",
    "postCode":"33412"
  },
  {
    "city":"Cavtat",
    "postCode":"20210"
  },
  {
    "city":"Cerna",
    "postCode":"32272"
  },
  {
    "city":"Cernik",
    "postCode":"35404"
  },
  {
    "city":"Cerovac Vukmanički",
    "postCode":"47241"
  },
  {
    "city":"Cerovlje",
    "postCode":"52402"
  },
  {
    "city":"Cestica",
    "postCode":"42208"
  },
  {
    "city":"Cetingrad",
    "postCode":"47222"
  },
  {
    "city":"Cista Provo",
    "postCode":"21256"
  },
  {
    "city":"Cista Velika",
    "postCode":"21244"
  },
  {
    "city":"Cres",
    "postCode":"51557"
  },
  {
    "city":"Crikvenica",
    "postCode":"51260"
  },
  {
    "city":"Crivac",
    "postCode":"21229"
  },
  {
    "city":"Crnac",
    "postCode":"33507"
  },
  {
    "city":"Crni Lug",
    "postCode":"51317"
  },
  {
    "city":"Čabar",
    "postCode":"51306"
  },
  {
    "city":"Čačinci",
    "postCode":"33514"
  },
  {
    "city":"Čađavica",
    "postCode":"33523"
  },
  {
    "city":"Čaglin",
    "postCode":"34350"
  },
  {
    "city":"Čakovci",
    "postCode":"32238"
  },
  {
    "city":"Čakovec",
    "postCode":"40000"
  },
  {
    "city":"Čara",
    "postCode":"20273"
  },
  {
    "city":"Čazma",
    "postCode":"43240"
  },
  {
    "city":"Čepin",
    "postCode":"31431"
  },
  {
    "city":"Červar Porat",
    "postCode":"52449"
  },
  {
    "city":"Čilipi",
    "postCode":"20213"
  },
  {
    "city":"Čista Velika",
    "postCode":"22214"
  },
  {
    "city":"Črnkovci",
    "postCode":"31553"
  },
  {
    "city":"Ćunski",
    "postCode":"51564"
  },
  {
    "city":"Darda",
    "postCode":"31326"
  },
  {
    "city":"Daruvar",
    "postCode":"43500"
  },
  {
    "city":"Dekanovec",
    "postCode":"40318"
  },
  {
    "city":"Delnice",
    "postCode":"51300"
  },
  {
    "city":"Desinić",
    "postCode":"49216"
  },
  {
    "city":"Dežanovac",
    "postCode":"43506"
  },
  {
    "city":"Dicmo",
    "postCode":"21232"
  },
  {
    "city":"Divuša",
    "postCode":"44435"
  },
  {
    "city":"Dobrinj",
    "postCode":"51514"
  },
  {
    "city":"Doli",
    "postCode":"20231"
  },
  {
    "city":"Donja Bistra",
    "postCode":"10298"
  },
  {
    "city":"Donja Dubrava",
    "postCode":"40328"
  },
  {
    "city":"Donja Lomnica",
    "postCode":"10412"
  },
  {
    "city":"Donja Motičina",
    "postCode":"31513"
  },
  {
    "city":"Donja Pušća",
    "postCode":"10294"
  },
  {
    "city":"Donja Stubica",
    "postCode":"49240"
  },
  {
    "city":"Donja Višnjica",
    "postCode":"42255"
  },
  {
    "city":"Donja Voća",
    "postCode":"42245"
  },
  {
    "city":"Donja Zelina",
    "postCode":"10382"
  },
  {
    "city":"Donje Ogorje",
    "postCode":"21206"
  },
  {
    "city":"Donje Pazarište",
    "postCode":"53213"
  },
  {
    "city":"Donji Andrijevci",
    "postCode":"35214"
  },
  {
    "city":"Donji Dolac",
    "postCode":"21205"
  },
  {
    "city":"Donji Dragonožec",
    "postCode":"10253"
  },
  {
    "city":"Donji Kraljevec",
    "postCode":"40320"
  },
  {
    "city":"Donji Kukuruzari",
    "postCode":"44431"
  },
  {
    "city":"Donji Lapac",
    "postCode":"53250"
  },
  {
    "city":"Donji Martijanec",
    "postCode":"42232"
  },
  {
    "city":"Donji Miholjac",
    "postCode":"31540"
  },
  {
    "city":"Donji Muć",
    "postCode":"21203"
  },
  {
    "city":"Donji Proložac",
    "postCode":"21264"
  },
  {
    "city":"Donji Vidovec",
    "postCode":"40327"
  },
  {
    "city":"Draga Bašćanska",
    "postCode":"51522"
  },
  {
    "city":"Dragalić",
    "postCode":"35428"
  },
  {
    "city":"Draganići",
    "postCode":"47201"
  },
  {
    "city":"Dragljane",
    "postCode":"21275"
  },
  {
    "city":"Dramalj",
    "postCode":"51265"
  },
  {
    "city":"Draškovec",
    "postCode":"40325"
  },
  {
    "city":"Drašnice",
    "postCode":"21328"
  },
  {
    "city":"Dražice",
    "postCode":"51218"
  },
  {
    "city":"Drenje",
    "postCode":"31418"
  },
  {
    "city":"Drenovci",
    "postCode":"32257"
  },
  {
    "city":"Drežnica",
    "postCode":"47313"
  },
  {
    "city":"Drežnik Grad",
    "postCode":"47246"
  },
  {
    "city":"Drinovci",
    "postCode":"22324"
  },
  {
    "city":"Drivenik",
    "postCode":"51242"
  },
  {
    "city":"Drniš",
    "postCode":"22320"
  },
  {
    "city":"Drnje",
    "postCode":"48322"
  },
  {
    "city":"Drvenik",
    "postCode":"21333"
  },
  {
    "city":"Drvenik Veliki",
    "postCode":"21225"
  },
  {
    "city":"Dubranec",
    "postCode":"10418"
  },
  {
    "city":"Dubrava",
    "postCode":"10342"
  },
  {
    "city":"Dubravica",
    "postCode":"10293"
  },
  {
    "city":"Dubravka",
    "postCode":"20216"
  },
  {
    "city":"Dubrovnik",
    "postCode":"20000"
  },
  {
    "city":"Duga Resa",
    "postCode":"47250"
  },
  {
    "city":"Dugi Rat",
    "postCode":"21315"
  },
  {
    "city":"Dugo Selo",
    "postCode":"10370"
  },
  {
    "city":"Dugopolje",
    "postCode":"21204"
  },
  {
    "city":"Dvor",
    "postCode":"44440"
  },
  {
    "city":"Đakovo",
    "postCode":"31400"
  },
  {
    "city":"Đelekovec",
    "postCode":"48316"
  },
  {
    "city":"Đeletovci",
    "postCode":"32244"
  },
  {
    "city":"Đulovac",
    "postCode":"43532"
  },
  {
    "city":"Đurđenovac",
    "postCode":"31511"
  },
  {
    "city":"Đurđevac",
    "postCode":"48350"
  },
  {
    "city":"Đurići",
    "postCode":"32263"
  },
  {
    "city":"Đurmanec",
    "postCode":"49225"
  },
  {
    "city":"Farkaševac",
    "postCode":"10344"
  },
  {
    "city":"Fažana (Fasana)",
    "postCode":"52212"
  },
  {
    "city":"Ferdinandovac",
    "postCode":"48356"
  },
  {
    "city":"Feričanci",
    "postCode":"31512"
  },
  {
    "city":"Funtana (Fontane)",
    "postCode":"52452"
  },
  {
    "city":"Fužine",
    "postCode":"51322"
  },
  {
    "city":"Gaboš",
    "postCode":"32212"
  },
  {
    "city":"Galižana (Gallesano)",
    "postCode":"52216"
  },
  {
    "city":"Garešnica",
    "postCode":"43280"
  },
  {
    "city":"Gat",
    "postCode":"31554"
  },
  {
    "city":"Gata",
    "postCode":"21253"
  },
  {
    "city":"Gdinj",
    "postCode":"21467"
  },
  {
    "city":"Generalski Stol",
    "postCode":"47262"
  },
  {
    "city":"Gerovo",
    "postCode":"51304"
  },
  {
    "city":"Glina",
    "postCode":"44400"
  },
  {
    "city":"Gola",
    "postCode":"48331"
  },
  {
    "city":"Golubić",
    "postCode":"22301"
  },
  {
    "city":"Gomirje",
    "postCode":"51327"
  },
  {
    "city":"Gorica Svetojanska",
    "postCode":"10453"
  },
  {
    "city":"Goričan",
    "postCode":"40324"
  },
  {
    "city":"Gorjani",
    "postCode":"31422"
  },
  {
    "city":"Gornja Rijeka",
    "postCode":"48268"
  },
  {
    "city":"Gornja Stubica",
    "postCode":"49245"
  },
  {
    "city":"Gornje Bazje",
    "postCode":"33407"
  },
  {
    "city":"Gornje Jesenje",
    "postCode":"49233"
  },
  {
    "city":"Gornje Zagorje",
    "postCode":"47307"
  },
  {
    "city":"Gornji Stupnik",
    "postCode":"10255"
  },
  {
    "city":"Gospić",
    "postCode":"53000"
  },
  {
    "city":"Goveđari",
    "postCode":"20226"
  },
  {
    "city":"Grab",
    "postCode":"21242"
  },
  {
    "city":"Graberje Ivaničko",
    "postCode":"10313"
  },
  {
    "city":"Grabovac",
    "postCode":"21271"
  },
  {
    "city":"Gračac",
    "postCode":"23440"
  },
  {
    "city":"Gračišće",
    "postCode":"52403"
  },
  {
    "city":"Gradac",
    "postCode":"21330"
  },
  {
    "city":"Gradec",
    "postCode":"10345"
  },
  {
    "city":"Gradina",
    "postCode":"33411"
  },
  {
    "city":"Gradište",
    "postCode":"32273"
  },
  {
    "city":"Grižane",
    "postCode":"51244"
  },
  {
    "city":"Grohote",
    "postCode":"21430"
  },
  {
    "city":"Grožnjan (Grisignana)",
    "postCode":"52429"
  },
  {
    "city":"Grubišno Polje",
    "postCode":"43290"
  },
  {
    "city":"Gruda",
    "postCode":"20215"
  },
  {
    "city":"Gudovac",
    "postCode":"43251"
  },
  {
    "city":"Gunja",
    "postCode":"32260"
  },
  {
    "city":"Gušće",
    "postCode":"44203"
  },
  {
    "city":"Gvozd",
    "postCode":"44410"
  },
  {
    "city":"Hercegovac",
    "postCode":"43284"
  },
  {
    "city":"Hlebine",
    "postCode":"48323"
  },
  {
    "city":"Hraščina-Trgovišće",
    "postCode":"49283"
  },
  {
    "city":"Hreljin",
    "postCode":"51226"
  },
  {
    "city":"Hrvace",
    "postCode":"21233"
  },
  {
    "city":"Hrvatska Dubica",
    "postCode":"44450"
  },
  {
    "city":"Hrvatska Kostajnica",
    "postCode":"44430"
  },
  {
    "city":"Hrvatski Leskovac",
    "postCode":"10251"
  },
  {
    "city":"Hum na Sutli",
    "postCode":"49231"
  },
  {
    "city":"Hvar",
    "postCode":"21450"
  },
  {
    "city":"Ičići",
    "postCode":"51414"
  },
  {
    "city":"Igrane",
    "postCode":"21329"
  },
  {
    "city":"Ilača",
    "postCode":"32248"
  },
  {
    "city":"Ilok",
    "postCode":"32236"
  },
  {
    "city":"Ilovik",
    "postCode":"51552"
  },
  {
    "city":"Imotski",
    "postCode":"21260"
  },
  {
    "city":"Ist",
    "postCode":"23293"
  },
  {
    "city":"Ivanec",
    "postCode":"42240"
  },
  {
    "city":"Ivanić-Grad",
    "postCode":"10310"
  },
  {
    "city":"Ivanja Reka",
    "postCode":"10373"
  },
  {
    "city":"Ivankovo",
    "postCode":"32281"
  },
  {
    "city":"Ivanska",
    "postCode":"43231"
  },
  {
    "city":"Jablanac",
    "postCode":"53287"
  },
  {
    "city":"Jabukovac",
    "postCode":"44204"
  },
  {
    "city":"Jadranovo",
    "postCode":"51264"
  },
  {
    "city":"Jakovlje",
    "postCode":"10297"
  },
  {
    "city":"Jakšić",
    "postCode":"34308"
  },
  {
    "city":"Jalžabet",
    "postCode":"42203"
  },
  {
    "city":"Janjina",
    "postCode":"20246"
  },
  {
    "city":"Jarmina",
    "postCode":"32280"
  },
  {
    "city":"Jasenak",
    "postCode":"47314"
  },
  {
    "city":"Jasenice",
    "postCode":"23243"
  },
  {
    "city":"Jasenovac",
    "postCode":"44324"
  },
  {
    "city":"Jastrebarsko",
    "postCode":"10450"
  },
  {
    "city":"Jelsa",
    "postCode":"21465"
  },
  {
    "city":"Jesenice",
    "postCode":"21314"
  },
  {
    "city":"Jezera",
    "postCode":"22242"
  },
  {
    "city":"Jezerane",
    "postCode":"53262"
  },
  {
    "city":"Josipdol",
    "postCode":"47303"
  },
  {
    "city":"Jurdani",
    "postCode":"51213"
  },
  {
    "city":"Kali",
    "postCode":"23272"
  },
  {
    "city":"Kalinovac",
    "postCode":"48361"
  },
  {
    "city":"Kalje",
    "postCode":"10456"
  },
  {
    "city":"Kalnik",
    "postCode":"48269"
  },
  {
    "city":"Kamanje",
    "postCode":"47282"
  },
  {
    "city":"Kamenmost",
    "postCode":"21262"
  },
  {
    "city":"Kanfanar",
    "postCode":"52352"
  },
  {
    "city":"Kaniška Iva",
    "postCode":"43283"
  },
  {
    "city":"Kapela",
    "postCode":"43203"
  },
  {
    "city":"Kaprije",
    "postCode":"22235"
  },
  {
    "city":"Kaptol",
    "postCode":"34334"
  },
  {
    "city":"Karin",
    "postCode":"23452"
  },
  {
    "city":"Karlobag",
    "postCode":"53288"
  },
  {
    "city":"Karlovac",
    "postCode":"47000"
  },
  {
    "city":"Karojba",
    "postCode":"52423"
  },
  {
    "city":"Kastav",
    "postCode":"51215"
  },
  {
    "city":"Kašina",
    "postCode":"10362"
  },
  {
    "city":"Kašt",
    "postCode":"47284"
  },
  {
    "city":"Kaštel Gomilica",
    "postCode":"21213"
  },
  {
    "city":"Kaštel Kambelovac",
    "postCode":"21214"
  },
  {
    "city":"Kaštel Lukšić",
    "postCode":"21215"
  },
  {
    "city":"Kaštel Stari",
    "postCode":"21216"
  },
  {
    "city":"Kaštel Sućurac",
    "postCode":"21212"
  },
  {
    "city":"Kaštel Štafilić",
    "postCode":"21217"
  },
  {
    "city":"Kaštelir (Castelliere)",
    "postCode":"52464"
  },
  {
    "city":"Kijevo",
    "postCode":"22310"
  },
  {
    "city":"Kistanje",
    "postCode":"22305"
  },
  {
    "city":"Klana",
    "postCode":"51217"
  },
  {
    "city":"Klanac",
    "postCode":"53212"
  },
  {
    "city":"Klanjec",
    "postCode":"49290"
  },
  {
    "city":"Klek",
    "postCode":"20356"
  },
  {
    "city":"Klenovica",
    "postCode":"51252"
  },
  {
    "city":"Klenovnik",
    "postCode":"42244"
  },
  {
    "city":"Klis",
    "postCode":"21231"
  },
  {
    "city":"Kloštar Ivanić",
    "postCode":"10312"
  },
  {
    "city":"Kloštar Podravski",
    "postCode":"48362"
  },
  {
    "city":"Kloštar Vojakovački",
    "postCode":"48264"
  },
  {
    "city":"Knin",
    "postCode":"22300"
  },
  {
    "city":"Kolan",
    "postCode":"23251"
  },
  {
    "city":"Koločep",
    "postCode":"20221"
  },
  {
    "city":"Komin (Dalma)",
    "postCode":"20344"
  },
  {
    "city":"Komin",
    "postCode":"10383"
  },
  {
    "city":"Komiža",
    "postCode":"21485"
  },
  {
    "city":"Komletinci",
    "postCode":"32253"
  },
  {
    "city":"Končanica (Končenice)",
    "postCode":"43505"
  },
  {
    "city":"Konjščina",
    "postCode":"49282"
  },
  {
    "city":"Koprivnica",
    "postCode":"48000"
  },
  {
    "city":"Koprivnički Ivanec",
    "postCode":"48314"
  },
  {
    "city":"Korčula",
    "postCode":"20260"
  },
  {
    "city":"Korenica",
    "postCode":"53230"
  },
  {
    "city":"Kornić",
    "postCode":"51517"
  },
  {
    "city":"Koromačno",
    "postCode":"52222"
  },
  {
    "city":"Kosinj",
    "postCode":"53203"
  },
  {
    "city":"Kostanje",
    "postCode":"21207"
  },
  {
    "city":"Kostanjevac",
    "postCode":"10455"
  },
  {
    "city":"Kostrena",
    "postCode":"51221"
  },
  {
    "city":"Kotoriba",
    "postCode":"40329"
  },
  {
    "city":"Kraljevec na Sutli",
    "postCode":"49294"
  },
  {
    "city":"Kraljevica",
    "postCode":"51262"
  },
  {
    "city":"Krapina",
    "postCode":"49000"
  },
  {
    "city":"Krapinske Toplice",
    "postCode":"49217"
  },
  {
    "city":"Krapje",
    "postCode":"44325"
  },
  {
    "city":"Krasica",
    "postCode":"51224"
  },
  {
    "city":"Krasno",
    "postCode":"53274"
  },
  {
    "city":"Krašić",
    "postCode":"10454"
  },
  {
    "city":"Kratečko",
    "postCode":"44213"
  },
  {
    "city":"Kravarsko",
    "postCode":"10413"
  },
  {
    "city":"Krivi Put",
    "postCode":"53271"
  },
  {
    "city":"Krivodol",
    "postCode":"21263"
  },
  {
    "city":"Križ",
    "postCode":"10314"
  },
  {
    "city":"Križevci",
    "postCode":"48260"
  },
  {
    "city":"Križišće",
    "postCode":"51241"
  },
  {
    "city":"Križpolje",
    "postCode":"53261"
  },
  {
    "city":"Krk",
    "postCode":"51500"
  },
  {
    "city":"Krnica",
    "postCode":"52208"
  },
  {
    "city":"Krnjak",
    "postCode":"47242"
  },
  {
    "city":"Kršan",
    "postCode":"52232"
  },
  {
    "city":"Kučiće",
    "postCode":"21208"
  },
  {
    "city":"Kućište",
    "postCode":"20267"
  },
  {
    "city":"Kukljica",
    "postCode":"23271"
  },
  {
    "city":"Kukuljanovo",
    "postCode":"51227"
  },
  {
    "city":"Kula Norinska",
    "postCode":"20341"
  },
  {
    "city":"Kumrovec",
    "postCode":"49295"
  },
  {
    "city":"Kuna",
    "postCode":"20243"
  },
  {
    "city":"Kunovec",
    "postCode":"48311"
  },
  {
    "city":"Kupjak",
    "postCode":"51313"
  },
  {
    "city":"Kupljenovo",
    "postCode":"10295"
  },
  {
    "city":"Kutina",
    "postCode":"44320"
  },
  {
    "city":"Kutjevo",
    "postCode":"34340"
  },
  {
    "city":"Kuzmica",
    "postCode":"34311"
  },
  {
    "city":"Kuželj",
    "postCode":"51302"
  },
  {
    "city":"Labin",
    "postCode":"52220"
  },
  {
    "city":"Lanišće",
    "postCode":"52422"
  },
  {
    "city":"Lasinja",
    "postCode":"47206"
  },
  {
    "city":"Lastovo",
    "postCode":"20290"
  },
  {
    "city":"Lećevica",
    "postCode":"21202"
  },
  {
    "city":"Ledenice",
    "postCode":"51251"
  },
  {
    "city":"Legrad",
    "postCode":"48317"
  },
  {
    "city":"Lekenik",
    "postCode":"44272"
  },
  {
    "city":"Lepajci",
    "postCode":"49224"
  },
  {
    "city":"Lepoglava",
    "postCode":"42250"
  },
  {
    "city":"Levanjska Varoš",
    "postCode":"31416"
  },
  {
    "city":"Lič",
    "postCode":"51323"
  },
  {
    "city":"Lički Osik",
    "postCode":"53201"
  },
  {
    "city":"Ličko Lešće",
    "postCode":"53224"
  },
  {
    "city":"Ličko Petrovo Selo",
    "postCode":"53233"
  },
  {
    "city":"Lijevi Dubrovčak",
    "postCode":"10316"
  },
  {
    "city":"Lipik",
    "postCode":"34551"
  },
  {
    "city":"Lipovac",
    "postCode":"32246"
  },
  {
    "city":"Lipovljani",
    "postCode":"44322"
  },
  {
    "city":"Livade (Levade)",
    "postCode":"52427"
  },
  {
    "city":"Ližnjan (Lisignano)",
    "postCode":"52204"
  },
  {
    "city":"Lobor",
    "postCode":"49253"
  },
  {
    "city":"Lokva Rogoznica",
    "postCode":"21317"
  },
  {
    "city":"Lokve",
    "postCode":"51316"
  },
  {
    "city":"Lonjica",
    "postCode":"10341"
  },
  {
    "city":"Lopar",
    "postCode":"51281"
  },
  {
    "city":"Lopatinec",
    "postCode":"40311"
  },
  {
    "city":"Lopud",
    "postCode":"20222"
  },
  {
    "city":"Lovas",
    "postCode":"32237"
  },
  {
    "city":"Lovinac",
    "postCode":"53244"
  },
  {
    "city":"Lovište",
    "postCode":"20269"
  },
  {
    "city":"Lovran",
    "postCode":"51415"
  },
  {
    "city":"Lovreć",
    "postCode":"21257"
  },
  {
    "city":"Lozovac",
    "postCode":"22221"
  },
  {
    "city":"Ložišća",
    "postCode":"21404"
  },
  {
    "city":"Lučko",
    "postCode":"10250"
  },
  {
    "city":"Ludbreg",
    "postCode":"42230"
  },
  {
    "city":"Lug (Laskó)",
    "postCode":"31328"
  },
  {
    "city":"Luka",
    "postCode":"10296"
  },
  {
    "city":"Lukač",
    "postCode":"33406"
  },
  {
    "city":"Lukoran",
    "postCode":"23274"
  },
  {
    "city":"Lukovdol",
    "postCode":"51328"
  },
  {
    "city":"Lukovo Šugarje",
    "postCode":"53289"
  },
  {
    "city":"Lumbarda",
    "postCode":"20263"
  },
  {
    "city":"Lun",
    "postCode":"53294"
  },
  {
    "city":"Lupoglav",
    "postCode":"52426"
  },
  {
    "city":"Ljubeščica",
    "postCode":"42222"
  },
  {
    "city":"Macinec",
    "postCode":"40306"
  },
  {
    "city":"Mače",
    "postCode":"49251"
  },
  {
    "city":"Magadenovac",
    "postCode":"31542"
  },
  {
    "city":"Mahično",
    "postCode":"47286"
  },
  {
    "city":"Makarska",
    "postCode":"21300"
  },
  {
    "city":"Mala Subotica",
    "postCode":"40321"
  },
  {
    "city":"Mali Bukovec",
    "postCode":"42231"
  },
  {
    "city":"Mali Erjavec",
    "postCode":"47281"
  },
  {
    "city":"Mali Lošinj",
    "postCode":"51550"
  },
  {
    "city":"Malinska",
    "postCode":"51511"
  },
  {
    "city":"Maranovići",
    "postCode":"20224"
  },
  {
    "city":"Marčana",
    "postCode":"52206"
  },
  {
    "city":"Marija Bistrica",
    "postCode":"49246"
  },
  {
    "city":"Marija Gorica",
    "postCode":"10299"
  },
  {
    "city":"Marijanci",
    "postCode":"31555"
  },
  {
    "city":"Marina",
    "postCode":"21222"
  },
  {
    "city":"Markušica",
    "postCode":"32213"
  },
  {
    "city":"Martinska Ves",
    "postCode":"44201"
  },
  {
    "city":"Martinšćica",
    "postCode":"51556"
  },
  {
    "city":"Maruševec",
    "postCode":"42243"
  },
  {
    "city":"Matulji",
    "postCode":"51211"
  },
  {
    "city":"Medulin",
    "postCode":"52203"
  },
  {
    "city":"Metković",
    "postCode":"20350"
  },
  {
    "city":"Miholjački Poreč",
    "postCode":"31543"
  },
  {
    "city":"Mihovljan",
    "postCode":"49252"
  },
  {
    "city":"Mikleuš",
    "postCode":"33517"
  },
  {
    "city":"Milna",
    "postCode":"21405"
  },
  {
    "city":"Mimice",
    "postCode":"21318"
  },
  {
    "city":"Mlini",
    "postCode":"20207"
  },
  {
    "city":"Mlinište",
    "postCode":"20353"
  },
  {
    "city":"Mokošica",
    "postCode":"20236"
  },
  {
    "city":"Molat",
    "postCode":"23292"
  },
  {
    "city":"Molve",
    "postCode":"48327"
  },
  {
    "city":"Momjan (Momiano)",
    "postCode":"52462"
  },
  {
    "city":"Moravice",
    "postCode":"51325"
  },
  {
    "city":"Mošćenica",
    "postCode":"44253"
  },
  {
    "city":"Mošćenička Draga",
    "postCode":"51417"
  },
  {
    "city":"Motovun (Montana)",
    "postCode":"52424"
  },
  {
    "city":"Mravince",
    "postCode":"21209"
  },
  {
    "city":"Mrkopalj",
    "postCode":"51315"
  },
  {
    "city":"Mursko Središče",
    "postCode":"40315"
  },
  {
    "city":"Murter",
    "postCode":"22243"
  },
  {
    "city":"Narta",
    "postCode":"43247"
  },
  {
    "city":"Našice",
    "postCode":"31500"
  },
  {
    "city":"Nedelišće",
    "postCode":"40305"
  },
  {
    "city":"Nedešćina",
    "postCode":"52231"
  },
  {
    "city":"Negoslavci",
    "postCode":"32239"
  },
  {
    "city":"Neorić",
    "postCode":"21247"
  },
  {
    "city":"Nerezine",
    "postCode":"51554"
  },
  {
    "city":"Nerežišća",
    "postCode":"21423"
  },
  {
    "city":"Netretić",
    "postCode":"47271"
  },
  {
    "city":"Neviđane",
    "postCode":"23264"
  },
  {
    "city":"Nijemci",
    "postCode":"32245"
  },
  {
    "city":"Nin",
    "postCode":"23232"
  },
  {
    "city":"Nova Bukovica",
    "postCode":"33518"
  },
  {
    "city":"Nova Kapela",
    "postCode":"10343"
  },
  {
    "city":"Nova Kapela",
    "postCode":"35410"
  },
  {
    "city":"Nova Rača",
    "postCode":"43272"
  },
  {
    "city":"Nova Sela",
    "postCode":"20278"
  },
  {
    "city":"Nova Vas",
    "postCode":"52446"
  },
  {
    "city":"Novalja",
    "postCode":"53291"
  },
  {
    "city":"Novi Golubovec",
    "postCode":"49255"
  },
  {
    "city":"Novi Marof",
    "postCode":"42220"
  },
  {
    "city":"Novi Vinodolski",
    "postCode":"51250"
  },
  {
    "city":"Novigrad (Cittanova)",
    "postCode":"52466"
  },
  {
    "city":"Novigrad (Dalmacija)",
    "postCode":"23312"
  },
  {
    "city":"Novigrad Podravski",
    "postCode":"48325"
  },
  {
    "city":"Novo Čiče",
    "postCode":"10415"
  },
  {
    "city":"Novo Virje",
    "postCode":"48355"
  },
  {
    "city":"Novoselec",
    "postCode":"10315"
  },
  {
    "city":"Novska",
    "postCode":"44330"
  },
  {
    "city":"Nuštar",
    "postCode":"32221"
  },
  {
    "city":"Njivice",
    "postCode":"51512"
  },
  {
    "city":"Oborovo",
    "postCode":"10372"
  },
  {
    "city":"Obrovac",
    "postCode":"23450"
  },
  {
    "city":"Obrovac Sinjski",
    "postCode":"21241"
  },
  {
    "city":"Ogulin",
    "postCode":"47300"
  },
  {
    "city":"Oklaj",
    "postCode":"22303"
  },
  {
    "city":"Okrug Gornji",
    "postCode":"21223"
  },
  {
    "city":"Okučani",
    "postCode":"35430"
  },
  {
    "city":"Olib",
    "postCode":"23296"
  },
  {
    "city":"Omiš",
    "postCode":"21310"
  },
  {
    "city":"Omišalj",
    "postCode":"51513"
  },
  {
    "city":"Opatija",
    "postCode":"51410"
  },
  {
    "city":"Opatovac",
    "postCode":"32233"
  },
  {
    "city":"Oprtalj (Portole)",
    "postCode":"52428"
  },
  {
    "city":"Opuzen",
    "postCode":"20355"
  },
  {
    "city":"Orahovica",
    "postCode":"33515"
  },
  {
    "city":"Orašac",
    "postCode":"20234"
  },
  {
    "city":"Orebić",
    "postCode":"20250"
  },
  {
    "city":"Orehovec",
    "postCode":"48267"
  },
  {
    "city":"Orehovica",
    "postCode":"40322"
  },
  {
    "city":"Oriovac",
    "postCode":"35250"
  },
  {
    "city":"Orle",
    "postCode":"10411"
  },
  {
    "city":"Orolik",
    "postCode":"32243"
  },
  {
    "city":"Oroslavje",
    "postCode":"49243"
  },
  {
    "city":"Osijek",
    "postCode":"31000"
  },
  {
    "city":"Oskorušno",
    "postCode":"20242"
  },
  {
    "city":"Ostrovo",
    "postCode":"32211"
  },
  {
    "city":"Oštarije",
    "postCode":"47302"
  },
  {
    "city":"Otočac",
    "postCode":"53220"
  },
  {
    "city":"Otok (Dalmacija)",
    "postCode":"21238"
  },
  {
    "city":"Otok",
    "postCode":"32252"
  },
  {
    "city":"Otrić Seoci",
    "postCode":"20342"
  },
  {
    "city":"Ozalj",
    "postCode":"47280"
  },
  {
    "city":"Pag",
    "postCode":"23250"
  },
  {
    "city":"Pakoštane",
    "postCode":"23211"
  },
  {
    "city":"Pakrac",
    "postCode":"34550"
  },
  {
    "city":"Pašman",
    "postCode":"23262"
  },
  {
    "city":"Pazin",
    "postCode":"52000"
  },
  {
    "city":"Perković",
    "postCode":"22205"
  },
  {
    "city":"Perušić",
    "postCode":"53202"
  },
  {
    "city":"Peteranec",
    "postCode":"48321"
  },
  {
    "city":"Petrčane",
    "postCode":"23231"
  },
  {
    "city":"Petrijanec",
    "postCode":"42206"
  },
  {
    "city":"Petrinja",
    "postCode":"44250"
  },
  {
    "city":"Petrovci",
    "postCode":"32229"
  },
  {
    "city":"Petrovsko",
    "postCode":"49234"
  },
  {
    "city":"Pićan",
    "postCode":"52332"
  },
  {
    "city":"Pirovac",
    "postCode":"22213"
  },
  {
    "city":"Pisarovina",
    "postCode":"10451"
  },
  {
    "city":"Piškorevci",
    "postCode":"31417"
  },
  {
    "city":"Pitomača",
    "postCode":"33405"
  },
  {
    "city":"Pivnica Slavonska",
    "postCode":"33533"
  },
  {
    "city":"Plaški",
    "postCode":"47304"
  },
  {
    "city":"Plešce",
    "postCode":"51303"
  },
  {
    "city":"Pleternica",
    "postCode":"34310"
  },
  {
    "city":"Plitvička Jezera",
    "postCode":"53231"
  },
  {
    "city":"Ploče",
    "postCode":"20340"
  },
  {
    "city":"Pločice",
    "postCode":"20218"
  },
  {
    "city":"Plomin",
    "postCode":"52234"
  },
  {
    "city":"Podaca",
    "postCode":"21335"
  },
  {
    "city":"Podcrkavlje",
    "postCode":"35201"
  },
  {
    "city":"Podgajci Podravski",
    "postCode":"31552"
  },
  {
    "city":"Podgora",
    "postCode":"21327"
  },
  {
    "city":"Podgorač",
    "postCode":"31433"
  },
  {
    "city":"Podlapača",
    "postCode":"53236"
  },
  {
    "city":"Podpićan",
    "postCode":"52333"
  },
  {
    "city":"Podravska Moslavina",
    "postCode":"31530"
  },
  {
    "city":"Podravske Sesvete",
    "postCode":"48363"
  },
  {
    "city":"Podstrana",
    "postCode":"21312"
  },
  {
    "city":"Podšpilje",
    "postCode":"21483"
  },
  {
    "city":"Podturen",
    "postCode":"40317"
  },
  {
    "city":"Podvinje",
    "postCode":"35107"
  },
  {
    "city":"Pokupsko",
    "postCode":"10414"
  },
  {
    "city":"Polača",
    "postCode":"23423"
  },
  {
    "city":"Poličnik",
    "postCode":"23241"
  },
  {
    "city":"Poljana",
    "postCode":"34543"
  },
  {
    "city":"Popovača",
    "postCode":"44317"
  },
  {
    "city":"Poreč (Parenzo)",
    "postCode":"52440"
  },
  {
    "city":"Posavski Bregi",
    "postCode":"10311"
  },
  {
    "city":"Posavski Podgajci",
    "postCode":"32258"
  },
  {
    "city":"Posedarje",
    "postCode":"23242"
  },
  {
    "city":"Postira",
    "postCode":"21410"
  },
  {
    "city":"Potomje",
    "postCode":"20244"
  },
  {
    "city":"Povlja",
    "postCode":"21413"
  },
  {
    "city":"Povljana",
    "postCode":"23249"
  },
  {
    "city":"Poznanovec",
    "postCode":"49222"
  },
  {
    "city":"Požega",
    "postCode":"34000"
  },
  {
    "city":"Praputnjak",
    "postCode":"51225"
  },
  {
    "city":"Pražnica",
    "postCode":"21424"
  },
  {
    "city":"Predava",
    "postCode":"43211"
  },
  {
    "city":"Pregrada",
    "postCode":"49218"
  },
  {
    "city":"Preko",
    "postCode":"23273"
  },
  {
    "city":"Prelog",
    "postCode":"40323"
  },
  {
    "city":"Premuda",
    "postCode":"23294"
  },
  {
    "city":"Preseka",
    "postCode":"10346"
  },
  {
    "city":"Prezid",
    "postCode":"51307"
  },
  {
    "city":"Prgomelje",
    "postCode":"43252"
  },
  {
    "city":"Prgomet",
    "postCode":"21201"
  },
  {
    "city":"Pridraga",
    "postCode":"23226"
  },
  {
    "city":"Pridvorje",
    "postCode":"20217"
  },
  {
    "city":"Prigorje Brdovečko",
    "postCode":"10291"
  },
  {
    "city":"Primorski Dolac",
    "postCode":"21227"
  },
  {
    "city":"Primošten",
    "postCode":"22202"
  },
  {
    "city":"Privlaka (Dalmacija)",
    "postCode":"23233"
  },
  {
    "city":"Privlaka",
    "postCode":"32251"
  },
  {
    "city":"Promajna",
    "postCode":"21323"
  },
  {
    "city":"Prvić Luka",
    "postCode":"22233"
  },
  {
    "city":"Prvić Šepurine",
    "postCode":"22234"
  },
  {
    "city":"Pučišća",
    "postCode":"21412"
  },
  {
    "city":"Pula (Pola)",
    "postCode":"52100"
  },
  {
    "city":"Punat",
    "postCode":"51521"
  },
  {
    "city":"Punitovci",
    "postCode":"31424"
  },
  {
    "city":"Pupnat",
    "postCode":"20274"
  },
  {
    "city":"Putniković",
    "postCode":"20248"
  },
  {
    "city":"Rab",
    "postCode":"51280"
  },
  {
    "city":"Rabac",
    "postCode":"52221"
  },
  {
    "city":"Račinovci",
    "postCode":"32262"
  },
  {
    "city":"Račišće",
    "postCode":"20264"
  },
  {
    "city":"Radatovići",
    "postCode":"47285"
  },
  {
    "city":"Radoboj",
    "postCode":"49232"
  },
  {
    "city":"Radovan",
    "postCode":"42242"
  },
  {
    "city":"Rajevo Selo",
    "postCode":"32261"
  },
  {
    "city":"Rajić",
    "postCode":"44323"
  },
  {
    "city":"Rakov Potok",
    "postCode":"10436"
  },
  {
    "city":"Rakovec",
    "postCode":"10347"
  },
  {
    "city":"Rakovica",
    "postCode":"47245"
  },
  {
    "city":"Rasinja",
    "postCode":"48312"
  },
  {
    "city":"Raša",
    "postCode":"52223"
  },
  {
    "city":"Ratkovica",
    "postCode":"34315"
  },
  {
    "city":"Rava",
    "postCode":"23283"
  },
  {
    "city":"Raven",
    "postCode":"48265"
  },
  {
    "city":"Ravna Gora",
    "postCode":"51314"
  },
  {
    "city":"Ražanac",
    "postCode":"23248"
  },
  {
    "city":"Rečica",
    "postCode":"47203"
  },
  {
    "city":"Retkovci",
    "postCode":"32282"
  },
  {
    "city":"Ribnik",
    "postCode":"47272"
  },
  {
    "city":"Ričice",
    "postCode":"21267"
  },
  {
    "city":"Rijeka",
    "postCode":"51000"
  },
  {
    "city":"Roč",
    "postCode":"52425"
  },
  {
    "city":"Rogotin",
    "postCode":"20343"
  },
  {
    "city":"Rogoznica",
    "postCode":"22203"
  },
  {
    "city":"Rokovci Andrijaševci",
    "postCode":"32271"
  },
  {
    "city":"Rovinj (Rovigno)",
    "postCode":"52210"
  },
  {
    "city":"Rovišće",
    "postCode":"43212"
  },
  {
    "city":"Runović",
    "postCode":"21261"
  },
  {
    "city":"Ružić",
    "postCode":"22322"
  },
  {
    "city":"Saborsko",
    "postCode":"47306"
  },
  {
    "city":"Sali",
    "postCode":"23281"
  },
  {
    "city":"Samobor",
    "postCode":"10430"
  },
  {
    "city":"Satnica Đakovačka",
    "postCode":"31421"
  },
  {
    "city":"Savudrija (Salvore)",
    "postCode":"52475"
  },
  {
    "city":"Sela",
    "postCode":"44273"
  },
  {
    "city":"Selca",
    "postCode":"21425"
  },
  {
    "city":"Selce",
    "postCode":"51266"
  },
  {
    "city":"Selci Đakovački",
    "postCode":"31415"
  },
  {
    "city":"Selnica",
    "postCode":"40314"
  },
  {
    "city":"Semeljci",
    "postCode":"31402"
  },
  {
    "city":"Senj",
    "postCode":"53270"
  },
  {
    "city":"Sestrunj",
    "postCode":"23291"
  },
  {
    "city":"Sesvete (kod Požege)",
    "postCode":"34312"
  },
  {
    "city":"Sesvete",
    "postCode":"10360"
  },
  {
    "city":"Sesvete-Kraljevec",
    "postCode":"10361"
  },
  {
    "city":"Severin",
    "postCode":"43274"
  },
  {
    "city":"Severin na Kupi",
    "postCode":"51329"
  },
  {
    "city":"Sibinj",
    "postCode":"35252"
  },
  {
    "city":"Silba",
    "postCode":"23295"
  },
  {
    "city":"Sinj",
    "postCode":"21230"
  },
  {
    "city":"Sirač",
    "postCode":"43541"
  },
  {
    "city":"Sisak",
    "postCode":"44000"
  },
  {
    "city":"Sisak-Caprag",
    "postCode":"44010"
  },
  {
    "city":"Siverić",
    "postCode":"22321"
  },
  {
    "city":"Skakavac",
    "postCode":"47212"
  },
  {
    "city":"Skrad",
    "postCode":"51311"
  },
  {
    "city":"Skradin",
    "postCode":"22222"
  },
  {
    "city":"Slakovci",
    "postCode":"32242"
  },
  {
    "city":"Slano",
    "postCode":"20232"
  },
  {
    "city":"Slatina",
    "postCode":"33520"
  },
  {
    "city":"Slatine",
    "postCode":"21224"
  },
  {
    "city":"Slavonski Brod",
    "postCode":"35105"
  },
  {
    "city":"Slavonski Brod",
    "postCode":"35106"
  },
  {
    "city":"Slivno",
    "postCode":"21272"
  },
  {
    "city":"Slunj",
    "postCode":"47240"
  },
  {
    "city":"Smiljan",
    "postCode":"53211"
  },
  {
    "city":"Smokvica",
    "postCode":"20272"
  },
  {
    "city":"Sokolovac",
    "postCode":"48306"
  },
  {
    "city":"Solin",
    "postCode":"21210"
  },
  {
    "city":"Soljani",
    "postCode":"32255"
  },
  {
    "city":"Sopje",
    "postCode":"33525"
  },
  {
    "city":"Sošice",
    "postCode":"10457"
  },
  {
    "city":"Sotin",
    "postCode":"32232"
  },
  {
    "city":"Split",
    "postCode":"21000"
  },
  {
    "city":"Sračinec",
    "postCode":"42209"
  },
  {
    "city":"Srb",
    "postCode":"23445"
  },
  {
    "city":"Srinjine",
    "postCode":"21292"
  },
  {
    "city":"Stankovci",
    "postCode":"23422"
  },
  {
    "city":"Stari Grad",
    "postCode":"21460"
  },
  {
    "city":"Stari Jankovci",
    "postCode":"32241"
  },
  {
    "city":"Stari Mikanovci",
    "postCode":"32284"
  },
  {
    "city":"Starigrad Paklenica",
    "postCode":"23244"
  },
  {
    "city":"Staševica",
    "postCode":"20345"
  },
  {
    "city":"Stobreč",
    "postCode":"21311"
  },
  {
    "city":"Stomorska",
    "postCode":"21432"
  },
  {
    "city":"Ston",
    "postCode":"20230"
  },
  {
    "city":"Strizivojna",
    "postCode":"31410"
  },
  {
    "city":"Strmec Samoborski",
    "postCode":"10434"
  },
  {
    "city":"Strošinci",
    "postCode":"32256"
  },
  {
    "city":"Stubičke Toplice",
    "postCode":"49244"
  },
  {
    "city":"Studenci",
    "postCode":"21265"
  },
  {
    "city":"Sućuraj",
    "postCode":"21469"
  },
  {
    "city":"Suhopolje",
    "postCode":"33410"
  },
  {
    "city":"Sukošan",
    "postCode":"23206"
  },
  {
    "city":"Sunja",
    "postCode":"44210"
  },
  {
    "city":"Supetar",
    "postCode":"21400"
  },
  {
    "city":"Susak",
    "postCode":"51561"
  },
  {
    "city":"Sutivan",
    "postCode":"21403"
  },
  {
    "city":"Sveta Marija",
    "postCode":"40326"
  },
  {
    "city":"Sveta Nedjelja",
    "postCode":"10431"
  },
  {
    "city":"Sveti Đurđ",
    "postCode":"42233"
  },
  {
    "city":"Sveti Filip i Jakov",
    "postCode":"23207"
  },
  {
    "city":"Sveti Ilija",
    "postCode":"42214"
  },
  {
    "city":"Sveti Ivan Zelina",
    "postCode":"10380"
  },
  {
    "city":"Sveti Ivan Žabno",
    "postCode":"48214"
  },
  {
    "city":"Sveti Juraj",
    "postCode":"53284"
  },
  {
    "city":"Sveti Križ Začretje",
    "postCode":"49223"
  },
  {
    "city":"Sveti Lovreč",
    "postCode":"52448"
  },
  {
    "city":"Sveti Martin na Muri",
    "postCode":"40313"
  },
  {
    "city":"Sveti Martin pod Okićem",
    "postCode":"10435"
  },
  {
    "city":"Sveti Petar u šumi",
    "postCode":"52404"
  },
  {
    "city":"Svetvinčenat",
    "postCode":"52342"
  },
  {
    "city":"Šandrovac",
    "postCode":"43227"
  },
  {
    "city":"Šapjane",
    "postCode":"51214"
  },
  {
    "city":"Šarengrad",
    "postCode":"32234"
  },
  {
    "city":"Šenkovec",
    "postCode":"10292"
  },
  {
    "city":"Šestanovac",
    "postCode":"21250"
  },
  {
    "city":"Šibenik",
    "postCode":"22000"
  },
  {
    "city":"Šibenik-Zablaće",
    "postCode":"22030"
  },
  {
    "city":"Šilo",
    "postCode":"51515"
  },
  {
    "city":"Šipanjska Luka",
    "postCode":"20223"
  },
  {
    "city":"Široke",
    "postCode":"22204"
  },
  {
    "city":"Šišljavić",
    "postCode":"47204"
  },
  {
    "city":"Škabrnja",
    "postCode":"23223"
  },
  {
    "city":"Škrljevo",
    "postCode":"51223"
  },
  {
    "city":"Šmrika",
    "postCode":"51263"
  },
  {
    "city":"Špišić Bukovica",
    "postCode":"33404"
  },
  {
    "city":"Štefanje",
    "postCode":"43246"
  },
  {
    "city":"Štitar",
    "postCode":"32274"
  },
  {
    "city":"Štrigova",
    "postCode":"40312"
  },
  {
    "city":"Šušnjevica",
    "postCode":"52233"
  },
  {
    "city":"Tar (Torre)",
    "postCode":"52465"
  },
  {
    "city":"Tijarica",
    "postCode":"21245"
  },
  {
    "city":"Tinjan",
    "postCode":"52444"
  },
  {
    "city":"Tisno",
    "postCode":"22240"
  },
  {
    "city":"Tkon",
    "postCode":"23212"
  },
  {
    "city":"Topolo",
    "postCode":"20205"
  },
  {
    "city":"Topolovac",
    "postCode":"44202"
  },
  {
    "city":"Topusko",
    "postCode":"44415"
  },
  {
    "city":"Tordinci",
    "postCode":"32214"
  },
  {
    "city":"Tounj",
    "postCode":"47264"
  },
  {
    "city":"Tovarnik",
    "postCode":"32249"
  },
  {
    "city":"Trakošćan",
    "postCode":"42254"
  },
  {
    "city":"Trget",
    "postCode":"52224"
  },
  {
    "city":"Tribalj",
    "postCode":"51243"
  },
  {
    "city":"Tribanj",
    "postCode":"23245"
  },
  {
    "city":"Tribunj",
    "postCode":"22212"
  },
  {
    "city":"Trilj",
    "postCode":"21240"
  },
  {
    "city":"Trnava",
    "postCode":"31411"
  },
  {
    "city":"Trnovec Bartolovečki",
    "postCode":"42202"
  },
  {
    "city":"Trnovitički Popovac",
    "postCode":"43233"
  },
  {
    "city":"Trogir",
    "postCode":"21220"
  },
  {
    "city":"Trpanj",
    "postCode":"20240"
  },
  {
    "city":"Trpinja",
    "postCode":"32224"
  },
  {
    "city":"Trstenik",
    "postCode":"20245"
  },
  {
    "city":"Trsteno",
    "postCode":"20233"
  },
  {
    "city":"Tršće",
    "postCode":"51305"
  },
  {
    "city":"Tučepi",
    "postCode":"21325"
  },
  {
    "city":"Tugare",
    "postCode":"21252"
  },
  {
    "city":"Tuhelj",
    "postCode":"49215"
  },
  {
    "city":"Turčin",
    "postCode":"42204"
  },
  {
    "city":"Udbina",
    "postCode":"53234"
  },
  {
    "city":"Ugljan",
    "postCode":"23275"
  },
  {
    "city":"Ugljane",
    "postCode":"21243"
  },
  {
    "city":"Uljanik",
    "postCode":"43507"
  },
  {
    "city":"Umag (Umago)",
    "postCode":"52470"
  },
  {
    "city":"Unešić",
    "postCode":"22323"
  },
  {
    "city":"Unije",
    "postCode":"51562"
  },
  {
    "city":"Valpovo",
    "postCode":"31550"
  },
  {
    "city":"Varaždin",
    "postCode":"42000"
  },
  {
    "city":"Varaždinske Toplice",
    "postCode":"42223"
  },
  {
    "city":"Vela Luka",
    "postCode":"20270"
  },
  {
    "city":"Vele Mune",
    "postCode":"51212"
  },
  {
    "city":"Veli Iž",
    "postCode":"23284"
  },
  {
    "city":"Veli Lošinj",
    "postCode":"51551"
  },
  {
    "city":"Veli Rat",
    "postCode":"23287"
  },
  {
    "city":"Velika",
    "postCode":"34330"
  },
  {
    "city":"Velika Gorica",
    "postCode":"10410"
  },
  {
    "city":"Velika Ludina",
    "postCode":"44316"
  },
  {
    "city":"Velika Mlaka",
    "postCode":"10408"
  },
  {
    "city":"Veliki Bastaji",
    "postCode":"43531"
  },
  {
    "city":"Veliki Grđevac",
    "postCode":"43270"
  },
  {
    "city":"Veliki Prolog",
    "postCode":"21277"
  },
  {
    "city":"Veliki Zdenci",
    "postCode":"43293"
  },
  {
    "city":"Veliko Trgovišće",
    "postCode":"49214"
  },
  {
    "city":"Veliko Trojstvo",
    "postCode":"43226"
  },
  {
    "city":"Veliko Vukovje",
    "postCode":"43282"
  },
  {
    "city":"Vetovo",
    "postCode":"34335"
  },
  {
    "city":"Vid",
    "postCode":"20352"
  },
  {
    "city":"Vidovec",
    "postCode":"42205"
  },
  {
    "city":"Viljevo",
    "postCode":"31531"
  },
  {
    "city":"Vinica",
    "postCode":"42207"
  },
  {
    "city":"Vinišće",
    "postCode":"21226"
  },
  {
    "city":"Vinjerac",
    "postCode":"23247"
  },
  {
    "city":"Vinkovci",
    "postCode":"32100"
  },
  {
    "city":"Vir",
    "postCode":"23234"
  },
  {
    "city":"Virje",
    "postCode":"48326"
  },
  {
    "city":"Virovitica",
    "postCode":"33000"
  },
  {
    "city":"Vis",
    "postCode":"21480"
  },
  {
    "city":"Viškovci",
    "postCode":"31401"
  },
  {
    "city":"Viškovo",
    "postCode":"51216"
  },
  {
    "city":"Višnjan (Visignano)",
    "postCode":"52463"
  },
  {
    "city":"Vivodina",
    "postCode":"47283"
  },
  {
    "city":"Vižinada (Visinada)",
    "postCode":"52447"
  },
  {
    "city":"Vladislavci",
    "postCode":"31404"
  },
  {
    "city":"Voćin",
    "postCode":"33522"
  },
  {
    "city":"Vodice",
    "postCode":"22211"
  },
  {
    "city":"Vodnjan (Dignano)",
    "postCode":"52215"
  },
  {
    "city":"Vođinci",
    "postCode":"32283"
  },
  {
    "city":"Vojnić",
    "postCode":"47220"
  },
  {
    "city":"Voloder",
    "postCode":"44318"
  },
  {
    "city":"Vratnik",
    "postCode":"53273"
  },
  {
    "city":"Vrbanj",
    "postCode":"21462"
  },
  {
    "city":"Vrbanja",
    "postCode":"32254"
  },
  {
    "city":"Vrbnik",
    "postCode":"51516"
  },
  {
    "city":"Vrboska",
    "postCode":"21463"
  },
  {
    "city":"Vrbovec",
    "postCode":"10340"
  },
  {
    "city":"Vrbovsko",
    "postCode":"51326"
  },
  {
    "city":"Vrgorac",
    "postCode":"21276"
  },
  {
    "city":"Vrhovine",
    "postCode":"53223"
  },
  {
    "city":"Vrlika",
    "postCode":"21236"
  },
  {
    "city":"Vrsar (Orsera)",
    "postCode":"52450"
  },
  {
    "city":"Vrsi",
    "postCode":"23235"
  },
  {
    "city":"Vuka",
    "postCode":"31403"
  },
  {
    "city":"Vukovar",
    "postCode":"32000"
  },
  {
    "city":"Vukovar",
    "postCode":"32010"
  },
  {
    "city":"Vukovina",
    "postCode":"10419"
  },
  {
    "city":"Zabok",
    "postCode":"49210"
  },
  {
    "city":"Zadar",
    "postCode":"23000"
  },
  {
    "city":"Zadvarje",
    "postCode":"21255"
  },
  {
    "city":"Zagorska Sela",
    "postCode":"49296"
  },
  {
    "city":"Zagreb",
    "postCode":"10000"
  },
  {
    "city":"Zagreb",
    "postCode":"10110"
  },
  {
    "city":"Zagreb-Dubrava",
    "postCode":"10040"
  },
  {
    "city":"Zagreb-Novi Zagreb",
    "postCode":"10020"
  },
  {
    "city":"Zagreb-Sloboština",
    "postCode":"10010"
  },
  {
    "city":"Zagreb-Susedgrad",
    "postCode":"10090"
  },
  {
    "city":"Zagvozd",
    "postCode":"21270"
  },
  {
    "city":"Zaostrog",
    "postCode":"21334"
  },
  {
    "city":"Zapolje",
    "postCode":"35422"
  },
  {
    "city":"Zaprešić",
    "postCode":"10290"
  },
  {
    "city":"Zastražišće",
    "postCode":"21466"
  },
  {
    "city":"Zaton",
    "postCode":"22215"
  },
  {
    "city":"Zaton Veliki",
    "postCode":"20235"
  },
  {
    "city":"Zdenci",
    "postCode":"33513"
  },
  {
    "city":"Zemunik",
    "postCode":"23222"
  },
  {
    "city":"Zlarin",
    "postCode":"22232"
  },
  {
    "city":"Zlatar",
    "postCode":"49250"
  },
  {
    "city":"Zlatar Bistrica",
    "postCode":"49247"
  },
  {
    "city":"Zlobin",
    "postCode":"51324"
  },
  {
    "city":"Zmijavci",
    "postCode":"21266"
  },
  {
    "city":"Zrinski Topolovac",
    "postCode":"43202"
  },
  {
    "city":"Zubovići",
    "postCode":"53296"
  },
  {
    "city":"Zvečaj",
    "postCode":"47261"
  },
  {
    "city":"Žakanje",
    "postCode":"47276"
  },
  {
    "city":"Ždala",
    "postCode":"48332"
  },
  {
    "city":"Ždrelac",
    "postCode":"23263"
  },
  {
    "city":"Žirje",
    "postCode":"22236"
  },
  {
    "city":"Žman",
    "postCode":"23282"
  },
  {
    "city":"Žminj",
    "postCode":"52341"
  },
  {
    "city":"Žrnovnica",
    "postCode":"21251"
  },
  {
    "city":"Žrnovo",
    "postCode":"20275"
  },
  {
    "city":"Žuljana",
    "postCode":"20247"
  },
  {
    "city":"Župa",
    "postCode":"21273"
  },
  {
    "city":"Županja",
    "postCode":"32270"
  }
]